{
  "type": "FeatureCollection",
  "features": [
    {
      "type": "Feature",
      "properties": {
        "norad_id": 40730,
        "name": "GPS BIIF-10 (PRN 08)",
        "group": "gps-ops",
        "lat": 26.01145810922628,
        "lon": -64.26234496626944,
        "alt_km": 19887.689094401976,
        "timestamp": "2025-12-04T07:39:36.396028+00:00",
        "meta_object_name": "GPS BIIF-10 (PRN 08)",
        "meta_object_id": "2015-033A",
        "meta_epoch": "2025-12-03T06:39:47.619936",
        "meta_mean_motion": 2.00565936,
        "meta_eccentricity": 0.01103737,
        "meta_inclination": 54.139,
        "meta_ra_of_asc_node": 275.1622,
        "meta_arg_of_pericenter": 26.5739,
        "meta_mean_anomaly": 333.9862,
        "meta_ephemeris_type": 0,
        "meta_classification_type": "U",
        "meta_norad_cat_id": 40730,
        "meta_element_set_no": 999,
        "meta_rev_at_epoch": 7606,
        "meta_bstar": 0,
        "meta_mean_motion_dot": -3.5e-07,
        "meta_mean_motion_ddot": 0,
        "tle_line1": "1 40730U 15033A   25337.27763449 -.00000035  00000+0  00000+0 0  9995",
        "tle_line2": "2 40730  54.1390 275.1622 0110373  26.5739 333.9862  2.00565936 76069"
      },
      "geometry": {
        "type": "Point",
        "coordinates": [
          -64.26234496626944,
          26.01145810922628
        ]
      }
    },
    {
      "type": "Feature",
      "properties": {
        "norad_id": 41019,
        "name": "GPS BIIF-11 (PRN 10)",
        "group": "gps-ops",
        "lat": -8.931636775253951,
        "lon": 32.45213538878057,
        "alt_km": 20326.61699689565,
        "timestamp": "2025-12-04T07:39:36.396038+00:00",
        "meta_object_name": "GPS BIIF-11 (PRN 10)",
        "meta_object_id": "2015-062A",
        "meta_epoch": "2025-12-02T20:07:20.287200",
        "meta_mean_motion": 2.00566746,
        "meta_eccentricity": 0.01105435,
        "meta_inclination": 56.8251,
        "meta_ra_of_asc_node": 38.3854,
        "meta_arg_of_pericenter": 229.6764,
        "meta_mean_anomaly": 129.4032,
        "meta_ephemeris_type": 0,
        "meta_classification_type": "U",
        "meta_norad_cat_id": 41019,
        "meta_element_set_no": 999,
        "meta_rev_at_epoch": 7389,
        "meta_bstar": 0,
        "meta_mean_motion_dot": -6.5e-07,
        "meta_mean_motion_ddot": 0,
        "tle_line1": "1 41019U 15062A   25336.83842925 -.00000065  00000+0  00000+0 0  9999",
        "tle_line2": "2 41019  56.8251  38.3854 0110543 229.6764 129.4032  2.00566746 73899"
      },
      "geometry": {
        "type": "Point",
        "coordinates": [
          32.45213538878057,
          -8.931636775253951
        ]
      }
    },
    {
      "type": "Feature",
      "properties": {
        "norad_id": 41328,
        "name": "GPS BIIF-12 (PRN 32)",
        "group": "gps-ops",
        "lat": -50.858806306300195,
        "lon": 39.25446517100191,
        "alt_km": 20018.934633722238,
        "timestamp": "2025-12-04T07:39:36.396047+00:00",
        "meta_object_name": "GPS BIIF-12 (PRN 32)",
        "meta_object_id": "2016-007A",
        "meta_epoch": "2025-12-02T10:07:51.558528",
        "meta_mean_motion": 2.00561137,
        "meta_eccentricity": 0.00916551,
        "meta_inclination": 55.4002,
        "meta_ra_of_asc_node": 97.2666,
        "meta_arg_of_pericenter": 243.3201,
        "meta_mean_anomaly": 115.7158,
        "meta_ephemeris_type": 0,
        "meta_classification_type": "U",
        "meta_norad_cat_id": 41328,
        "meta_element_set_no": 999,
        "meta_rev_at_epoch": 7189,
        "meta_bstar": 0,
        "meta_mean_motion_dot": 6e-08,
        "meta_mean_motion_ddot": 0,
        "tle_line1": "1 41328U 16007A   25336.42212452  .00000006  00000+0  00000+0 0  9997",
        "tle_line2": "2 41328  55.4002  97.2666 0091655 243.3201 115.7158  2.00561137 71891"
      },
      "geometry": {
        "type": "Point",
        "coordinates": [
          39.25446517100191,
          -50.858806306300195
        ]
      }
    },
    {
      "type": "Feature",
      "properties": {
        "norad_id": 43873,
        "name": "GPS BIII-1  (PRN 04)",
        "group": "gps-ops",
        "lat": -3.0129833319457204,
        "lon": -78.06716836618574,
        "alt_km": 20086.756436534182,
        "timestamp": "2025-12-04T07:39:36.396057+00:00",
        "meta_object_name": "GPS BIII-1  (PRN 04)",
        "meta_object_id": "2018-109A",
        "meta_epoch": "2025-12-02T13:53:48.865056",
        "meta_mean_motion": 2.00553145,
        "meta_eccentricity": 0.00371805,
        "meta_inclination": 55.5613,
        "meta_ra_of_asc_node": 99.9484,
        "meta_arg_of_pericenter": 194.5324,
        "meta_mean_anomaly": 172.7169,
        "meta_ephemeris_type": 0,
        "meta_classification_type": "U",
        "meta_norad_cat_id": 43873,
        "meta_element_set_no": 999,
        "meta_rev_at_epoch": 5113,
        "meta_bstar": 0,
        "meta_mean_motion_dot": 1e-07,
        "meta_mean_motion_ddot": 0,
        "tle_line1": "1 43873U 18109A   25336.57903779  .00000010  00000+0  00000+0 0  9999",
        "tle_line2": "2 43873  55.5613  99.9484 0037180 194.5324 172.7169  2.00553145 51130"
      },
      "geometry": {
        "type": "Point",
        "coordinates": [
          -78.06716836618574,
          -3.0129833319457204
        ]
      }
    },
    {
      "type": "Feature",
      "properties": {
        "norad_id": 44506,
        "name": "GPS BIII-2  (PRN 18)",
        "group": "gps-ops",
        "lat": 54.36932744267345,
        "lon": 50.983024033378015,
        "alt_km": 20249.016036882404,
        "timestamp": "2025-12-04T07:39:36.396067+00:00",
        "meta_object_name": "GPS BIII-2  (PRN 18)",
        "meta_object_id": "2019-056A",
        "meta_epoch": "2025-12-02T10:49:28.764768",
        "meta_mean_motion": 2.00565569,
        "meta_eccentricity": 0.00578163,
        "meta_inclination": 55.7251,
        "meta_ra_of_asc_node": 338.9617,
        "meta_arg_of_pericenter": 198.402,
        "meta_mean_anomaly": 332.9603,
        "meta_ephemeris_type": 0,
        "meta_classification_type": "U",
        "meta_norad_cat_id": 44506,
        "meta_element_set_no": 999,
        "meta_rev_at_epoch": 4612,
        "meta_bstar": 0,
        "meta_mean_motion_dot": -6.1e-07,
        "meta_mean_motion_ddot": 0,
        "tle_line1": "1 44506U 19056A   25336.45102737 -.00000061  00000+0  00000+0 0  9994",
        "tle_line2": "2 44506  55.7251 338.9617 0057816 198.4020 332.9603  2.00565569 46121"
      },
      "geometry": {
        "type": "Point",
        "coordinates": [
          50.983024033378015,
          54.36932744267345
        ]
      }
    },
    {
      "type": "Feature",
      "properties": {
        "norad_id": 45854,
        "name": "GPS BIII-3  (PRN 23)",
        "group": "gps-ops",
        "lat": 20.170515977919834,
        "lon": 50.576195623353044,
        "alt_km": 20340.355023297452,
        "timestamp": "2025-12-04T07:39:36.396077+00:00",
        "meta_object_name": "GPS BIII-3  (PRN 23)",
        "meta_object_id": "2020-041A",
        "meta_epoch": "2025-12-03T06:48:38.769120",
        "meta_mean_motion": 2.00561684,
        "meta_eccentricity": 0.0060262,
        "meta_inclination": 56.5402,
        "meta_ra_of_asc_node": 36.5545,
        "meta_arg_of_pericenter": 203.0015,
        "meta_mean_anomaly": 153.8862,
        "meta_ephemeris_type": 0,
        "meta_classification_type": "U",
        "meta_norad_cat_id": 45854,
        "meta_element_set_no": 999,
        "meta_rev_at_epoch": 4010,
        "meta_bstar": 0,
        "meta_mean_motion_dot": -6.6e-07,
        "meta_mean_motion_ddot": 0,
        "tle_line1": "1 45854U 20041A   25337.28378205 -.00000066  00000+0  00000+0 0  9999",
        "tle_line2": "2 45854  56.5402  36.5545 0060262 203.0015 153.8862  2.00561684 40105"
      },
      "geometry": {
        "type": "Point",
        "coordinates": [
          50.576195623353044,
          20.170515977919834
        ]
      }
    },
    {
      "type": "Feature",
      "properties": {
        "norad_id": 46826,
        "name": "GPS BIII-4  (PRN 14)",
        "group": "gps-ops",
        "lat": -3.647854086569026,
        "lon": -143.96303568166306,
        "alt_km": 20332.114863968956,
        "timestamp": "2025-12-04T07:39:36.396088+00:00",
        "meta_object_name": "GPS BIII-4  (PRN 14)",
        "meta_object_id": "2020-078A",
        "meta_epoch": "2025-11-12T03:01:29.190720",
        "meta_mean_motion": 2.00567032,
        "meta_eccentricity": 0.0063911,
        "meta_inclination": 54.0223,
        "meta_ra_of_asc_node": 219.5836,
        "meta_arg_of_pericenter": 203.4986,
        "meta_mean_anomaly": 326.7754,
        "meta_ephemeris_type": 0,
        "meta_classification_type": "U",
        "meta_norad_cat_id": 46826,
        "meta_element_set_no": 999,
        "meta_rev_at_epoch": 3715,
        "meta_bstar": 0,
        "meta_mean_motion_dot": -3.4e-07,
        "meta_mean_motion_ddot": 0,
        "tle_line1": "1 46826U 20078A   25316.12603230 -.00000034  00000+0  00000+0 0  9993",
        "tle_line2": "2 46826  54.0223 219.5836 0063911 203.4986 326.7754  2.00567032 37155"
      },
      "geometry": {
        "type": "Point",
        "coordinates": [
          -143.96303568166306,
          -3.647854086569026
        ]
      }
    }
  ]
}